{"fetched_at":"2026-03-31T13:18:33Z","count":12674,"tles":[{"name":"STARLINK-5477","line1":"1 55659U 23021AH  26089.46855212  .00000430  00000+0  43867-4 0  9994","line2":"2 55659  69.9989 112.2027 0003116 269.3678  90.7124 14.98328328172381","category":"Starlink"},{"name":"FLOCK 4X-2","line1":"1 50996U 22002N   23361.77312855  .00027429  00000+0  79175-3 0  9993","line2":"2 50996  97.4181  70.7738 0005973 272.2310  87.8250 15.35633703108469","category":"Other"},{"name":"STARLINK-31040","line1":"1 58722U 24002T   26089.84895682  .00000200  00000+0  18879-4 0  9995","line2":"2 58722  53.1604 131.7346 0001306  94.5686 265.5464 15.30193608125251","category":"Starlink"},{"name":"FENGYUN 1C DEB","line1":"1 30940U 99025BAE 26089.27304211  .00000860  00000+0  52138-3 0  9991","line2":"2 30940  98.6280  89.9170 0041979  58.5545 317.0074 14.08485999976468","category":"Weather"},{"name":"GMS-T","line1":"1 47346U 21004A   26089.81415608  .00000034  00000+0  66739-4 0  9990","line2":"2 47346  90.1209 240.8776 0001055 223.9472 136.1576 13.16658297249283","category":"Other"},{"name":"STARLINK-6353","line1":"1 57056U 23088J   26089.91667824  .00788030  00000+0  29684-1 0  9997","line2":"2 57056  42.9995 350.1900 0000934 282.6744 153.0617 15.23799326  5735","category":"Starlink"},{"name":"STARLINK-36747","line1":"1 67730U 26026K   26089.88527417  .00027932  00000+0  86421-3 0  9992","line2":"2 67730  97.2844 144.1812 0001488  91.1023 269.0390 15.33449435  7374","category":"Starlink"},{"name":"STARLINK-4259","line1":"1 52987U 22076B   26089.48414861 -.00008954  00000+0 -54475-3 0  9994","line2":"2 52987  53.2194  10.7704 0001598 105.9692 254.1476 15.08868405205844","category":"Starlink"},{"name":"STARLINK-31901","line1":"1 59793U 24093M   24168.91667824 -.00403805  00000+0 -10101-1 0  9990","line2":"2 59793  43.0001 200.3123 0001531 295.5252 297.2679 15.40932725  5885","category":"Starlink"},{"name":"UNKNOWN","line1":"1 85430U          26026.68381291  .01102801  65252-3  17938-2 0  9990","line2":"2 85430  53.2147 236.7622 0003262 171.8494 188.2593 16.02882600    19","category":"Other"},{"name":"STARLINK-2565","line1":"1 48280U 21036E   26089.46507256  .00008006  00000+0  55548-3 0  9997","line2":"2 48280  53.0557   3.3556 0001471  95.3686 264.7471 15.06418594271230","category":"Starlink"},{"name":"STARLINK-30336","line1":"1 57703U 23129F   26089.75058971  .00006885  00000+0  25946-3 0  9991","line2":"2 57703  43.0033 358.9617 0001895 251.9019 108.1626 15.27583082143762","category":"Starlink"},{"name":"ARIANE 5 R/B","line1":"1 28787U 05028B   26088.57295705 -.00000202  00000+0  12973-3 0  9990","line2":"2 28787   6.8214 253.8779 7160097  90.2615 344.2584  2.26685016170834","category":"Other"},{"name":"STARLINK-1239","line1":"1 45193U 20012R   23362.15986945  .00005720  00000+0  40256-3 0  9993","line2":"2 45193  53.0557  49.3139 0001650 102.4364 257.6810 15.06402161212943","category":"Starlink"},{"name":"STARLINK-5593","line1":"1 55763U 23028Y   26089.71563330  .00000332  00000+0  35640-4 0  9993","line2":"2 55763  70.0012 191.2808 0003138 269.0214  91.0585 14.98332849169191","category":"Starlink"},{"name":"FLOCK 4H-36","line1":"1 66739U 25276CB  26089.79095603  .00009565  00000+0  45339-3 0  9998","line2":"2 66739  97.4290 164.8411 0001983 195.2292 164.8883 15.19506737 18528","category":"Other"},{"name":"FLOCK 4X-4","line1":"1 51064U 22002CJ  23361.72590978  .00027233  00000+0  77304-3 0  9994","line2":"2 51064  97.4154  70.4300 0004712 261.6183  98.4527 15.36167563108460","category":"Other"},{"name":"STARLINK-31166","line1":"1 58789U 24012C   26089.19466182 -.00000549  00000+0 -10450-4 0  9991","line2":"2 58789  43.0036  49.2995 0000852 270.7474  89.3280 15.27575321124374","category":"Starlink"},{"name":"FENGYUN 1C DEB","line1":"1 31032U 99025BEA 26089.71448339  .00002435  00000+0  14790-2 0  9994","line2":"2 31032  99.3960 106.9603 0136757 259.6207 153.8577 14.02773025964952","category":"Weather"},{"name":"SPACEBEE-63","line1":"1 47442U 21006AF  23361.73296579  .00055920  00000+0  13506-2 0  9990","line2":"2 47442  97.3611  58.1031 0004052 117.2605 242.9055 15.40983391162235","category":"Other"},{"name":"STARLINK-6149","line1":"1 57122U 23090X   26089.88076735  .00000360  00000+0  41690-4 0  9992","line2":"2 57122  43.0012 159.2799 0001431 280.1675  79.9006 15.02535605153607","category":"Starlink"},{"name":"STARLINK-36354","line1":"1 67800U 26032D   26089.77198839  .00287230  00000+0  18529-2 0  9999","line2":"2 67800  97.2819 277.3221 0002575  92.3836 267.7724 15.75309126  8106","category":"Starlink"},{"name":"HYLAS 2","line1":"1 38741U 12043B   26089.81216766 -.00000271  00000+0  00000+0 0  9994","line2":"2 38741   2.2257  82.0111 0002617 309.4472  16.5640  1.00271578 49984","category":"Other"},{"name":"STARLINK-4314","line1":"1 53056U 22077P   26089.78797709  .00000577  00000+0  44172-4 0  9996","line2":"2 53056  97.6023 272.0170 0001660  90.6264 269.5153 15.05650433204152","category":"Starlink"},{"name":"STARLINK-31943","line1":"1 59878U 24098W   26089.91667824  .00078802  00000+0  24754-2 0  9996","line2":"2 59878  43.0008 161.6807 0004629  44.5478 231.7165 15.32053439  5865","category":"Starlink"},{"name":"UNKNOWN","line1":"1 87782U          26089.44563347  .00004088  00000+0  13416-1 0  9998","line2":"2 87782 102.3801 340.4468 0063712   3.1845 356.9646 13.01096918581997","category":"Other"},{"name":"STARLINK-37049","line1":"1 68152U 26049L   26089.86433603  .00309689  00000+0  15507-2 0  9995","line2":"2 68152  97.2842 110.1854 0001503  99.5463 260.5975 15.80958087  2750","category":"Starlink"},{"name":"STARLINK-4625","line1":"1 53683U 22105AM  26089.61910332 -.00000175  00000+0 -79004-5 0  9994","line2":"2 53683  97.6028 330.7858 0001742  87.7383 272.4043 15.05645473196382","category":"Starlink"},{"name":"STARLINK-35334","line1":"1 66450U 25259AE  26089.58114708  .00025430  00000+0  92980-3 0  9997","line2":"2 66450  43.0040 156.5931 0001731 286.1161  73.9500 15.27603100 22688","category":"Starlink"},{"name":"STARLINK-33834","line1":"1 63586U 25076T   26089.63677937  .00028514  00000+0  10412-2 0  9990","line2":"2 63586  43.0000 203.4277 0000760  73.3072 286.7863 15.27594791 55030","category":"Starlink"},{"name":"AMAZONAS NEXUS","line1":"1 55508U 23017A   26088.45199616  .00000000  00000+0  00000+0 0  9999","line2":"2 55508   0.0221  82.8818 0005301 299.4350 266.2686  1.00267074  6241","category":"Other"},{"name":"KUIPER-00265","line1":"1 67159U 25301AC  26089.87543486  .00006548  00000+0  88594-3 0  9998","line2":"2 67159  51.9046 351.9341 0001250 101.1908 258.9196 14.79987713 16620","category":"Other"},{"name":"STARLINK-37014","line1":"1 68216U 26053K   26089.91667824 -.00085607  00000+0 -44996-3 0  9999","line2":"2 68216  97.2845 325.2352 0001331  78.1993 190.8372 15.80845391  3420","category":"Starlink"},{"name":"EUTELSAT KONNECT VHTS","line1":"1 53765U 22110A   26089.04273329 -.00000001  00000+0  00000+0 0  9997","line2":"2 53765   0.0642 101.4783 0002844 238.3493 225.6573  1.00270643  6047","category":"Other"},{"name":"ELECTRON KICK STAGE R/B","line1":"1 67223U 25305E   26017.52693475  .00112917  11873-4  95035-3 0  9992","line2":"2 67223  44.9843 149.9326 0160458 315.9809  42.8399 15.54485740  4717","category":"Other"},{"name":"STARLINK-37070","line1":"1 68280U 26055U   26089.91667824 -.01456156  60429-3 -43696-2 0  9994","line2":"2 68280  53.1570 230.9001 0001063  59.3956 132.8777 15.91687242  3046","category":"Starlink"},{"name":"2025-313AS","line1":"1 67288U 25313AS  26089.93719991  .00007943  00000+0  34712-3 0  9990","line2":"2 67288  97.3969 165.9298 0010037 262.9037  97.1058 15.22318110 14050","category":"Other"},{"name":"STARLINK-5150","line1":"1 75150C 23090AV  23185.76298611 -.00977302  00000-0 -59492-2 0  1859","line2":"2 75150  42.9999 214.3709 0001263 263.1549 309.2829 15.77459527    16","category":"Starlink"},{"name":"FENGYUN 1C DEB","line1":"1 35240U 99025DQY 26086.85289803  .00002888  00000+0  12582-2 0  9999","line2":"2 35240  99.3560  60.9083 0044657 214.2931 145.5361 14.24313926946607","category":"Weather"},{"name":"STARLINK-3390","line1":"1 51119U 22005R   23361.20940464  .00042781  00000+0  22551-2 0  9998","line2":"2 51119  53.2166 293.7284 0002316  73.6708 286.4541 15.15189216107614","category":"Starlink"},{"name":"FLOCK 4S-27","line1":"1 47495U 21006CL  23361.70087022  .00025183  00000+0  73853-3 0  9996","line2":"2 47495  97.3531  58.0162 0008176 119.3556 240.8505 15.35136889162296","category":"Other"},{"name":"STARLINK-36479","line1":"1 67352U 26003U   26089.77667591  .00024371  00000+0  89237-3 0  9995","line2":"2 67352  43.0040 107.5610 0000784 257.7148 102.3616 15.27575347 12052","category":"Starlink"},{"name":"FENGYUN 1C DEB","line1":"1 38828U 99025EVU 23178.88887370  .00029529  00000+0  31087-2 0  9991","line2":"2 38828  99.5373  54.7290 0210497 309.6138  48.6648 14.74371032644829","category":"Weather"},{"name":"SUPERVIEW NEO-2 01","line1":"1 53128U 22082A   26089.86333519  .00009466  00000+0  38769-3 0  9996","line2":"2 53128  97.3926 100.8462 0001750  89.7015 270.4423 15.24506949206275","category":"Other"},{"name":"STARLINK-5858","line1":"1 75858C 23094AY  23189.75118056  .00514745  00000-0  73730-3 0  1897","line2":"2 75858  42.9952 313.6273 0076770 152.2180 321.2157 15.98256211    19","category":"Starlink"},{"name":"CZ-3B DEB","line1":"1 42458U 10042Z   26086.58548523  .00000170  00000+0  48362-2 0  9994","line2":"2 42458  30.3160 273.6972 7502914 197.2861 106.3688  1.81275350 74999","category":"Other"},{"name":"FENGYUN 1C DEB","line1":"1 32179U 99025CTZ 26089.89832112  .00000479  00000+0  30329-3 0  9995","line2":"2 32179  98.8896 141.5038 0144421 248.2450 294.3805 14.03758213672454","category":"Weather"},{"name":"YAMAL 101","line1":"1 25896U 99047A   26084.08617840 -.00000285  00000+0  00000+0 0  9997","line2":"2 25896  14.6022   0.1382 0087044  60.7970  91.3446  0.99864872 96963","category":"Other"}]}